{"type": "FeatureCollection", "features": [ {"type": "Feature", "properties": {"norad_id": 30305, "name": "FENGYUN 1C DEB", "group": "fengyun-1c-debris", "lat": 61.708975236117, "lon": -97.36367867407527, "alt_km": 930.2222415171846, "timestamp": "2025-12-03T20:47:58.499365+00:00", "meta": {"OBJECT_NAME": "FENGYUN 1C DEB", "OBJECT_ID": "1999-025ZS", "EPOCH": "2025-12-03T11:58:20.512128", "MEAN_MOTION": 13.6022333, "ECCENTRICITY": 0.0265484, "INCLINATION": 98.586, "RA_OF_ASC_NODE": 278.6142, "ARG_OF_PERICENTER": 125.2153, "MEAN_ANOMALY": 300.3307, "EPHEMERIS_TYPE": 0, "CLASSIFICATION_TYPE": "U", "NORAD_CAT_ID": 30305, "ELEMENT_SET_NO": 999, "REV_AT_EPOCH": 93648, "BSTAR": 0.0003014, "MEAN_MOTION_DOT": 2.51e-06, "MEAN_MOTION_DDOT": 0}, "tle": {"line1": "1 30305U 99025ZS  25337.49884852  .00000251  00000+0  30140-3 0  9992", "line2": "2 30305  98.5860 278.6142 0265484 125.2153 300.3307 13.60223330936486"}}, "geometry": {"type": "Point", "coordinates": [-97.36367867407527, 61.708975236117]}}, {"type": "Feature", "properties": {"norad_id": 30306, "name": "FENGYUN 1C DEB", "group": "fengyun-1c-debris", "lat": 20.404980884792096, "lon": -157.68840268203533, "alt_km": 855.898836802945, "timestamp": "2025-12-03T20:47:58.499375+00:00", "meta": {"OBJECT_NAME": "FENGYUN 1C DEB", "OBJECT_ID": "1999-025ZT", "EPOCH": "2025-12-03T01:34:01.059456", "MEAN_MOTION": 14.28123888, "ECCENTRICITY": 0.01138808, "INCLINATION": 98.5881, "RA_OF_ASC_NODE": 18.3007, "ARG_OF_PERICENTER": 25.9725, "MEAN_ANOMALY": 334.7111, "EPHEMERIS_TYPE": 0, "CLASSIFICATION_TYPE": "U", "NORAD_CAT_ID": 30306, "ELEMENT_SET_NO": 999, "REV_AT_EPOCH": 97543, "BSTAR": 0.0013006628, "MEAN_MOTION_DOT": 3.424e-05, "MEAN_MOTION_DDOT": 0}, "tle": {"line1": "1 30306U 99025ZT  25337.06529004  .00003424  00000+0  13007-2 0  9998", "line2": "2 30306  98.5881  18.3007 0113880  25.9725 334.7111 14.28123888975436"}}, "geometry": {"type": "Point", "coordinates": [-157.68840268203533, 20.404980884792096]}}, {"type": "Feature", "properties": {"norad_id": 30309, "name": "FENGYUN 1C DEB", "group": "fengyun-1c-debris", "lat": 80.10756165517387, "lon": -33.71607038534348, "alt_km": 951.6990026595176, "timestamp": "2025-12-03T20:47:58.499386+00:00", "meta": {"OBJECT_NAME": "FENGYUN 1C DEB", "OBJECT_ID": "1999-025ZW", "EPOCH": "2025-12-03T03:08:49.987104", "MEAN_MOTION": 13.93506466, "ECCENTRICITY": 0.00930118, "INCLINATION": 99.2274, "RA_OF_ASC_NODE": 34.32, "ARG_OF_PERICENTER": 217.9139, "MEAN_ANOMALY": 141.5448, "EPHEMERIS_TYPE": 0, "CLASSIFICATION_TYPE": "U", "NORAD_CAT_ID": 30309, "ELEMENT_SET_NO": 999, "REV_AT_EPOCH": 95899, "BSTAR": 0.00028131196, "MEAN_MOTION_DOT": 3.37e-06, "MEAN_MOTION_DDOT": 0}, "tle": {"line1": "1 30309U 99025ZW  25337.13113411  .00000337  00000+0  28131-3 0  9995", "line2": "2 30309  99.2274  34.3200 0093011 217.9139 141.5448 13.93506466958998"}}, "geometry": {"type": "Point", "coordinates": [-33.71607038534348, 80.10756165517387]}}, {"type": "Feature", "properties": {"norad_id": 30310, "name": "FENGYUN 1C DEB", "group": "fengyun-1c-debris", "lat": -69.8063314883806, "lon": 153.34838641715947, "alt_km": 984.6013628169176, "timestamp": "2025-12-03T20:47:58.499396+00:00", "meta": {"OBJECT_NAME": "FENGYUN 1C DEB", "OBJECT_ID": "1999-025ZX", "EPOCH": "2025-12-03T11:04:40.759104", "MEAN_MOTION": 14.0834249, "ECCENTRICITY": 0.0241444, "INCLINATION": 98.6657, "RA_OF_ASC_NODE": 357.4554, "ARG_OF_PERICENTER": 23.7968, "MEAN_ANOMALY": 337.4147, "EPHEMERIS_TYPE": 0, "CLASSIFICATION_TYPE": "U", "NORAD_CAT_ID": 30310, "ELEMENT_SET_NO": 999, "REV_AT_EPOCH": 96601, "BSTAR": 0.00085715, "MEAN_MOTION_DOT": 1.874e-05, "MEAN_MOTION_DDOT": 0}, "tle": {"line1": "1 30310U 99025ZX  25337.46158286  .00001874  00000+0  85715-3 0  9990", "line2": "2 30310  98.6657 357.4554 0241444  23.7968 337.4147 14.08342490966013"}}, "geometry": {"type": "Point", "coordinates": [153.34838641715947, -69.8063314883806]}}, {"type": "Feature", "properties": {"norad_id": 30311, "name": "FENGYUN 1C DEB", "group": "fengyun-1c-debris", "lat": -12.762482827800318, "lon": 75.97247061581966, "alt_km": 1046.9462236920172, "timestamp": "2025-12-03T20:47:58.499407+00:00", "meta": {"OBJECT_NAME": "FENGYUN 1C DEB", "OBJECT_ID": "1999-025ZY", "EPOCH": "2025-12-03T05:10:43.207104", "MEAN_MOTION": 13.7787367, "ECCENTRICITY": 0.0164935, "INCLINATION": 99.1399, "RA_OF_ASC_NODE": 73.2561, "ARG_OF_PERICENTER": 222.2081, "MEAN_ANOMALY": 136.6276, "EPHEMERIS_TYPE": 0, "CLASSIFICATION_TYPE": "U", "NORAD_CAT_ID": 30311, "ELEMENT_SET_NO": 999, "REV_AT_EPOCH": 94829, "BSTAR": 0.00063409, "MEAN_MOTION_DOT": 6.59e-06, "MEAN_MOTION_DDOT": 0}, "tle": {"line1": "1 30311U 99025ZY  25337.21577786  .00000659  00000+0  63409-3 0  9990", "line2": "2 30311  99.1399  73.2561 0164935 222.2081 136.6276 13.77873670948291"}}, "geometry": {"type": "Point", "coordinates": [75.97247061581966, -12.762482827800318]}}, {"type": "Feature", "properties": {"norad_id": 30312, "name": "FENGYUN 1C DEB", "group": "fengyun-1c-debris", "lat": 74.48600409025869, "lon": 22.52135123437562, "alt_km": 740.4955190091323, "timestamp": "2025-12-03T20:47:58.499417+00:00", "meta": {"OBJECT_NAME": "FENGYUN 1C DEB", "OBJECT_ID": "1999-025ZZ", "EPOCH": "2025-12-03T03:58:09.581088", "MEAN_MOTION": 14.45545494, "ECCENTRICITY": 0.00115732, "INCLINATION": 98.8675, "RA_OF_ASC_NODE": 56.0113, "ARG_OF_PERICENTER": 234.0601, "MEAN_ANOMALY": 155.982, "EPHEMERIS_TYPE": 0, "CLASSIFICATION_TYPE": "U", "NORAD_CAT_ID": 30312, "ELEMENT_SET_NO": 999, "REV_AT_EPOCH": 97782, "BSTAR": 0.0034885314, "MEAN_MOTION_DOT": 0.00012294, "MEAN_MOTION_DDOT": 0}, "tle": {"line1": "1 30312U 99025ZZ  25337.16538867  .00012294  00000+0  34885-2 0  9995", "line2": "2 30312  98.8675  56.0113 0011573 234.0601 155.9820 14.45545494977821"}}, "geometry": {"type": "Point", "coordinates": [22.52135123437562, 74.48600409025869]}}, {"type": "Feature", "properties": {"norad_id": 30313, "name": "FENGYUN 1C DEB", "group": "fengyun-1c-debris", "lat": 81.11248275583638, "lon": -28.06789876141157, "alt_km": 798.1028030396474, "timestamp": "2025-12-03T20:47:58.499428+00:00", "meta": {"OBJECT_NAME": "FENGYUN 1C DEB", "OBJECT_ID": "1999-025AAA", "EPOCH": "2025-12-03T05:20:32.913024", "MEAN_MOTION": 14.25331172, "ECCENTRICITY": 0.0056329, "INCLINATION": 98.8766, "RA_OF_ASC_NODE": 63.2799, "ARG_OF_PERICENTER": 4.386, "MEAN_ANOMALY": 22.4076, "EPHEMERIS_TYPE": 0, "CLASSIFICATION_TYPE": "U", "NORAD_CAT_ID": 30313, "ELEMENT_SET_NO": 999, "REV_AT_EPOCH": 96954, "BSTAR": 0.002125, "MEAN_MOTION_DOT": 5.047e-05, "MEAN_MOTION_DDOT": 0}, "tle": {"line1": "1 30313U 99025AAA 25337.22260316  .00005047  00000+0  21250-2 0  9994", "line2": "2 30313  98.8766  63.2799 0056329   4.3860  22.4076 14.25331172969541"}}, "geometry": {"type": "Point", "coordinates": [-28.06789876141157, 81.11248275583638]}}, {"type": "Feature", "properties": {"norad_id": 30314, "name": "FENGYUN 1C DEB", "group": "fengyun-1c-debris", "lat": 12.767367572879099, "lon": -8.63266030749232, "alt_km": 974.3798488325174, "timestamp": "2025-12-03T20:47:58.499438+00:00", "meta": {"OBJECT_NAME": "FENGYUN 1C DEB", "OBJECT_ID": "1999-025AAB", "EPOCH": "2025-12-03T11:26:37.364640", "MEAN_MOTION": 14.01143232, "ECCENTRICITY": 0.0142691, "INCLINATION": 98.3813, "RA_OF_ASC_NODE": 169.0949, "ARG_OF_PERICENTER": 24.0355, "MEAN_ANOMALY": 336.7386, "EPHEMERIS_TYPE": 0, "CLASSIFICATION_TYPE": "U", "NORAD_CAT_ID": 30314, "ELEMENT_SET_NO": 999, "REV_AT_EPOCH": 95979, "BSTAR": 0.0013782, "MEAN_MOTION_DOT": 2.223e-05, "MEAN_MOTION_DDOT": 0}, "tle": {"line1": "1 30314U 99025AAB 25337.47682135  .00002223  00000+0  13782-2 0  9993", "line2": "2 30314  98.3813 169.0949 0142691  24.0355 336.7386 14.01143232959791"}}, "geometry": {"type": "Point", "coordinates": [-8.63266030749232, 12.767367572879099]}}, {"type": "Feature", "properties": {"norad_id": 30315, "name": "FENGYUN 1C DEB", "group": "fengyun-1c-debris", "lat": 58.31945387124735, "lon": -178.16298448964295, "alt_km": 824.9826410149753, "timestamp": "2025-12-03T20:47:58.499449+00:00", "meta": {"OBJECT_NAME": "FENGYUN 1C DEB", "OBJECT_ID": "1999-025AAC", "EPOCH": "2025-12-03T12:29:05.553888", "MEAN_MOTION": 14.19043316, "ECCENTRICITY": 0.0035749, "INCLINATION": 98.6023, "RA_OF_ASC_NODE": 347.3024, "ARG_OF_PERICENTER": 26.7755, "MEAN_ANOMALY": 124.5278, "EPHEMERIS_TYPE": 0, "CLASSIFICATION_TYPE": "U", "NORAD_CAT_ID": 30315, "ELEMENT_SET_NO": 999, "REV_AT_EPOCH": 97576, "BSTAR": 0.00042201, "MEAN_MOTION_DOT": 8.44e-06, "MEAN_MOTION_DDOT": 0}, "tle": {"line1": "1 30315U 99025AAC 25337.52020317  .00000844  00000+0  42201-3 0  9994", "line2": "2 30315  98.6023 347.3024 0035749  26.7755 124.5278 14.19043316975760"}}, "geometry": {"type": "Point", "coordinates": [-178.16298448964295, 58.31945387124735]}}, {"type": "Feature", "properties": {"norad_id": 30316, "name": "FENGYUN 1C DEB", "group": "fengyun-1c-debris", "lat": 74.10296559642082, "lon": 47.65372054084959, "alt_km": 674.282735538517, "timestamp": "2025-12-03T20:47:58.499459+00:00", "meta": {"OBJECT_NAME": "FENGYUN 1C DEB", "OBJECT_ID": "1999-025AAD", "EPOCH": "2025-12-03T05:36:17.644320", "MEAN_MOTION": 14.55765488, "ECCENTRICITY": 0.0036332, "INCLINATION": 98.6492, "RA_OF_ASC_NODE": 79.3052, "ARG_OF_PERICENTER": 69.8209, "MEAN_ANOMALY": 290.6889, "EPHEMERIS_TYPE": 0, "CLASSIFICATION_TYPE": "U", "NORAD_CAT_ID": 30316, "ELEMENT_SET_NO": 999, "REV_AT_EPOCH": 98198, "BSTAR": 0.0028629, "MEAN_MOTION_DOT": 0.00012616, "MEAN_MOTION_DDOT": 0}, "tle": {"line1": "1 30316U 99025AAD 25337.23353755  .00012616  00000+0  28629-2 0  9995", "line2": "2 30316  98.6492  79.3052 0036332  69.8209 290.6889 14.55765488981980"}}, "geometry": {"type": "Point", "coordinates": [47.65372054084959, 74.10296559642082]}}]}